{
  "type": "FeatureCollection",
  "features": [
    {
      "type": "Feature",
      "properties": {
        "norad_id": 66911,
        "name": "1998-067XX",
        "group": "last-30-days",
        "lat": 24.57575033673794,
        "lon": -99.28558806038562,
        "alt_km": 405.8528982739599,
        "timestamp": "2025-12-20T20:38:43.174236+00:00",
        "meta_object_name": "1998-067XX",
        "meta_object_id": "1998-067XX",
        "meta_epoch": "2025-12-20T12:17:22.048800",
        "meta_mean_motion": 15.53037566,
        "meta_eccentricity": 0.00038557,
        "meta_inclination": 51.631,
        "meta_ra_of_asc_node": 103.6915,
        "meta_arg_of_pericenter": 259.4504,
        "meta_mean_anomaly": 100.6051,
        "meta_ephemeris_type": 0,
        "meta_classification_type": "U",
        "meta_norad_cat_id": 66911,
        "meta_element_set_no": 999,
        "meta_rev_at_epoch": 281,
        "meta_bstar": 0.00075761816,
        "meta_mean_motion_dot": 0.00048031,
        "meta_mean_motion_ddot": 0,
        "tle_line1": "1 66911U 98067XX  25354.51206075  .00048031  00000+0  75762-3 0  9993",
        "tle_line2": "2 66911  51.6310 103.6915 0003855 259.4504 100.6051 15.53037566  2811"
      },
      "geometry": {
        "type": "Point",
        "coordinates": [
          -99.28558806038562,
          24.57575033673794
        ]
      }
    },
    {
      "type": "Feature",
      "properties": {
        "norad_id": 66912,
        "name": "1998-067XY",
        "group": "last-30-days",
        "lat": 51.285574498218054,
        "lon": -159.20962536748897,
        "alt_km": 406.85928392807546,
        "timestamp": "2025-12-20T20:38:43.174248+00:00",
        "meta_object_name": "1998-067XY",
        "meta_object_id": "1998-067XY",
        "meta_epoch": "2025-12-19T14:52:14.043072",
        "meta_mean_motion": 15.51780846,
        "meta_eccentricity": 0.0004012,
        "meta_inclination": 51.6307,
        "meta_ra_of_asc_node": 108.231,
        "meta_arg_of_pericenter": 260.881,
        "meta_mean_anomaly": 99.1725,
        "meta_ephemeris_type": 0,
        "meta_classification_type": "U",
        "meta_norad_cat_id": 66912,
        "meta_element_set_no": 999,
        "meta_rev_at_epoch": 267,
        "meta_bstar": 0.00063264,
        "meta_mean_motion_dot": 0.00038197,
        "meta_mean_motion_ddot": 0,
        "tle_line1": "1 66912U 98067XY  25353.61960698  .00038197  00000+0  63264-3 0  9998",
        "tle_line2": "2 66912  51.6307 108.2310 0004012 260.8810  99.1725 15.51780846  2678"
      },
      "geometry": {
        "type": "Point",
        "coordinates": [
          -159.20962536748897,
          51.285574498218054
        ]
      }
    },
    {
      "type": "Feature",
      "properties": {
        "norad_id": 66913,
        "name": "2025-284A",
        "group": "last-30-days",
        "lat": 68.87922670438375,
        "lon": -86.4739362585557,
        "alt_km": 498.7556441683719,
        "timestamp": "2025-12-20T20:38:43.174261+00:00",
        "meta_object_name": "2025-284A",
        "meta_object_id": "2025-284A",
        "meta_epoch": "2025-12-18T06:24:29.359008",
        "meta_mean_motion": 15.16462178,
        "meta_eccentricity": 0.00203688,
        "meta_inclination": 80.4052,
        "meta_ra_of_asc_node": 122.7714,
        "meta_arg_of_pericenter": 156.4299,
        "meta_mean_anomaly": 203.7866,
        "meta_ephemeris_type": 0,
        "meta_classification_type": "U",
        "meta_norad_cat_id": 66913,
        "meta_element_set_no": 999,
        "meta_rev_at_epoch": 196,
        "meta_bstar": 0.00046237905,
        "meta_mean_motion_dot": 9.066e-05,
        "meta_mean_motion_ddot": 0,
        "tle_line1": "1 66913U 25284A   25352.26700647  .00009066  00000+0  46238-3 0  9991",
        "tle_line2": "2 66913  80.4052 122.7714 0020368 156.4299 203.7866 15.16462178  1964"
      },
      "geometry": {
        "type": "Point",
        "coordinates": [
          -86.4739362585557,
          68.87922670438375
        ]
      }
    },
    {
      "type": "Feature",
      "properties": {
        "norad_id": 66914,
        "name": "2025-284B",
        "group": "last-30-days",
        "lat": 18.135635933784176,
        "lon": -63.703932165481596,
        "alt_km": 506.11492096422353,
        "timestamp": "2025-12-20T20:38:43.174271+00:00",
        "meta_object_name": "2025-284B",
        "meta_object_id": "2025-284B",
        "meta_epoch": "2025-12-16T06:51:11.417184",
        "meta_mean_motion": 15.18985981,
        "meta_eccentricity": 0.00081793,
        "meta_inclination": 80.4045,
        "meta_ra_of_asc_node": 125.2713,
        "meta_arg_of_pericenter": 234.9626,
        "meta_mean_anomaly": 125.0834,
        "meta_ephemeris_type": 0,
        "meta_classification_type": "U",
        "meta_norad_cat_id": 66914,
        "meta_element_set_no": 999,
        "meta_rev_at_epoch": 166,
        "meta_bstar": 0.00038444995,
        "meta_mean_motion_dot": 8.068e-05,
        "meta_mean_motion_ddot": 0,
        "tle_line1": "1 66914U 25284B   25350.28554881  .00008068  00000+0  38445-3 0  9991",
        "tle_line2": "2 66914  80.4045 125.2713 0008179 234.9626 125.0834 15.18985981  1668"
      },
      "geometry": {
        "type": "Point",
        "coordinates": [
          -63.703932165481596,
          18.135635933784176
        ]
      }
    },
    {
      "type": "Feature",
      "properties": {
        "norad_id": 66915,
        "name": "HULIANWANG DIGUI-105",
        "group": "last-30-days",
        "lat": -23.106810469210902,
        "lon": -74.80623747785626,
        "alt_km": 884.8605188281572,
        "timestamp": "2025-12-20T20:38:43.174281+00:00",
        "meta_object_name": "HULIANWANG DIGUI-105",
        "meta_object_id": "2025-285A",
        "meta_epoch": "2025-12-20T14:31:08.234688",
        "meta_mean_motion": 14.03717881,
        "meta_eccentricity": 0.00080436,
        "meta_inclination": 50.0049,
        "meta_ra_of_asc_node": 85.2447,
        "meta_arg_of_pericenter": 308.9722,
        "meta_mean_anomaly": 51.0466,
        "meta_ephemeris_type": 0,
        "meta_classification_type": "U",
        "meta_norad_cat_id": 66915,
        "meta_element_set_no": 999,
        "meta_rev_at_epoch": 201,
        "meta_bstar": 9.5962869e-05,
        "meta_mean_motion_dot": 0,
        "meta_mean_motion_ddot": 0,
        "tle_line1": "1 66915U 25285A   25354.60495642  .00000000  00000+0  95963-4 0  9999",
        "tle_line2": "2 66915  50.0049  85.2447 0008043 308.9722  51.0466 14.03717881  2018"
      },
      "geometry": {
        "type": "Point",
        "coordinates": [
          -74.80623747785626,
          -23.106810469210902
        ]
      }
    },
    {
      "type": "Feature",
      "properties": {
        "norad_id": 66916,
        "name": "HULIANWANG DIGUI-106",
        "group": "last-30-days",
        "lat": -33.102053853061946,
        "lon": -62.64063285009937,
        "alt_km": 883.6434560772468,
        "timestamp": "2025-12-20T20:38:43.174291+00:00",
        "meta_object_name": "HULIANWANG DIGUI-106",
        "meta_object_id": "2025-285B",
        "meta_epoch": "2025-12-20T14:26:57.624576",
        "meta_mean_motion": 14.03702784,
        "meta_eccentricity": 0.00068232,
        "meta_inclination": 50.006,
        "meta_ra_of_asc_node": 85.2309,
        "meta_arg_of_pericenter": 302.1743,
        "meta_mean_anomaly": 57.8499,
        "meta_ephemeris_type": 0,
        "meta_classification_type": "U",
        "meta_norad_cat_id": 66916,
        "meta_element_set_no": 999,
        "meta_rev_at_epoch": 201,
        "meta_bstar": 9.2036565e-05,
        "meta_mean_motion_dot": -6e-08,
        "meta_mean_motion_ddot": 0,
        "tle_line1": "1 66916U 25285B   25354.60205584 -.00000006  00000+0  92037-4 0  9990",
        "tle_line2": "2 66916  50.0060  85.2309 0006823 302.1743  57.8499 14.03702784  2018"
      },
      "geometry": {
        "type": "Point",
        "coordinates": [
          -62.64063285009937,
          -33.102053853061946
        ]
      }
    },
    {
      "type": "Feature",
      "properties": {
        "norad_id": 66917,
        "name": "HULIANWANG DIGUI-107",
        "group": "last-30-days",
        "lat": -38.73633759022424,
        "lon": -53.50803023525855,
        "alt_km": 884.0126041478579,
        "timestamp": "2025-12-20T20:38:43.174302+00:00",
        "meta_object_name": "HULIANWANG DIGUI-107",
        "meta_object_id": "2025-285C",
        "meta_epoch": "2025-12-20T14:24:17.722368",
        "meta_mean_motion": 14.0366284,
        "meta_eccentricity": 0.00074812,
        "meta_inclination": 50.0025,
        "meta_ra_of_asc_node": 85.2147,
        "meta_arg_of_pericenter": 311.7188,
        "meta_mean_anomaly": 48.3076,
        "meta_ephemeris_type": 0,
        "meta_classification_type": "U",
        "meta_norad_cat_id": 66917,
        "meta_element_set_no": 999,
        "meta_rev_at_epoch": 201,
        "meta_bstar": 9.2133031e-05,
        "meta_mean_motion_dot": -6e-08,
        "meta_mean_motion_ddot": 0,
        "tle_line1": "1 66917U 25285C   25354.60020512 -.00000006  00000+0  92133-4 0  9994",
        "tle_line2": "2 66917  50.0025  85.2147 0007481 311.7188  48.3076 14.03662840  2014"
      },
      "geometry": {
        "type": "Point",
        "coordinates": [
          -53.50803023525855,
          -38.73633759022424
        ]
      }
    }
  ]
}